[{"OBJECT_NAME":"ASNARO-2","OBJECT_ID":"2018-007A","EPOCH":"2026-03-08T18:06:21.285792","MEAN_MOTION":15.22434719,"ECCENTRICITY":0.00020856,"INCLINATION":97.403,"RA_OF_ASC_NODE":76.2222,"ARG_OF_PERICENTER":88.5161,"MEAN_ANOMALY":271.6314,"EPHEMERIS_TYPE":0,"CLASSIFICATION_TYPE":"U","NORAD_CAT_ID":43152,"ELEMENT_SET_NO":999,"REV_AT_EPOCH":45213,"BSTAR":0.00060724701,"MEAN_MOTION_DOT":0.00013989,"MEAN_MOTION_DDOT":0},{"OBJECT_NAME":"SHIYAN-31","OBJECT_ID":"2025-227A","EPOCH":"2026-03-09T23:00:16.199712","MEAN_MOTION":15.23071011,"ECCENTRICITY":0.00102897,"INCLINATION":80.0014,"RA_OF_ASC_NODE":266.3496,"ARG_OF_PERICENTER":145.5638,"MEAN_ANOMALY":214.6259,"EPHEMERIS_TYPE":0,"CLASSIFICATION_TYPE":"U","NORAD_CAT_ID":65945,"ELEMENT_SET_NO":999,"REV_AT_EPOCH":2244,"BSTAR":0.00029737952,"MEAN_MOTION_DOT":7.034e-5,"MEAN_MOTION_DDOT":0}]
